NORAD_CAT_ID,OBJECT_NAME,OBJECT_TYPE,EPOCH,MEAN_MOTION,ECCENTRICITY,INCLINATION,RA_OF_ASC_NODE,ARG_OF_PERICENTER,MEAN_ANOMALY,BSTAR,MEAN_MOTION_DOT,MEAN_MOTION_DDOT,TLE_LINE0,TLE_LINE1,TLE_LINE2,SEMIMAJOR_AXIS,PERIOD,APOGEE,PERIGEE,DECAYED
52852.0,STARLINK-4184,PAYLOAD,2023-10-07 17:40:58,15.08852843,0.0001051,53.2179,32.34,89.2083,270.903,0.00041266,6.288e-05,0.0,0 STARLINK-4184,1 52852U 22062Y   23280.73678567  .00006288  00000-0  41266-3 0  9994,2 52852  53.2179  32.3400 0001051  89.2083 270.9030 15.08852843 72969,6917.841,95.437,540.433,538.979,0.0
52852.0,STARLINK-4184,PAYLOAD,2023-10-08 14:21:00,15.08830809,0.0001472,53.2182,28.4798,90.4486,269.6674,0.00094528,0.00014784,0.0,0 STARLINK-4184,1 52852U 22062Y   23281.59791978  .00014784  00000-0  94528-3 0  9990,2 52852  53.2182  28.4798 0001472  90.4486 269.6674 15.08830809 72605,6917.908,95.438,540.792,538.755,0.0
52852.0,STARLINK-4184,PAYLOAD,2023-10-08 15:56:22,15.08856376,0.0001251,53.218,28.177,81.9509,278.1625,0.00044036,6.73e-05,0.0,0 STARLINK-4184,1 52852U 22062Y   23281.66414595  .00006730  00000-0  44036-3 0  9996,2 52852  53.2180  28.1770 0001251  81.9509 278.1625 15.08856376 73100,6917.83,95.437,540.561,538.83,0.0
52852.0,STARLINK-4184,PAYLOAD,2023-10-08 23:53:18,15.08842856,0.0001577,53.2179,26.6899,84.4565,275.6607,0.00012879,1.762e-05,0.0,0 STARLINK-4184,1 52852U 22062Y   23281.99535075  .00001762  00000-0  12879-3 0  9999,2 52852  53.2179  26.6899 0001577  84.4565 275.6607 15.08842856 73159,6917.872,95.437,540.828,538.646,0.0
52852.0,STARLINK-4184,PAYLOAD,2023-10-09 14:11:46,15.08847529,0.0001479,53.2185,24.0194,104.7943,255.3213,0.00019048,2.745e-05,0.0,0 STARLINK-4184,1 52852U 22062Y   23282.59150797  .00002745  00000-0  19048-3 0  9997,2 52852  53.2185  24.0194 0001479 104.7943 255.3213 15.08847529 72758,6917.857,95.437,540.746,538.699,0.0
52852.0,STARLINK-4184,PAYLOAD,2023-10-09 15:47:09,15.08856486,0.000139,53.2179,23.7179,93.6463,266.4688,0.00043831,6.698e-05,0.0,0 STARLINK-4184,1 52852U 22062Y   23282.65774502  .00006698  00000-0  43831-3 0  9998,2 52852  53.2179  23.7179 0001390  93.6463 266.4688 15.08856486 73252,6917.83,95.437,540.657,538.733,0.0
52852.0,STARLINK-4184,PAYLOAD,2023-10-10 12:27:10,15.08849101,0.0001619,53.2184,19.8516,89.536,270.5817,0.00011748,1.583e-05,0.0,0 STARLINK-4184,1 52852U 22062Y   23283.51886601  .00001583  00000-0  11748-3 0  9998,2 52852  53.2184  19.8516 0001619  89.5360 270.5817 15.08849101 73383,6917.853,95.437,540.838,538.598,0.0
52852.0,STARLINK-4184,PAYLOAD,2023-10-10 14:02:33,15.08850673,0.0001685,53.2185,19.5541,86.9921,273.1264,0.00015852,2.236e-05,0.0,0 STARLINK-4184,1 52852U 22062Y   23283.58510557  .00002236  00000-0  15852-3 0  9995,2 52852  53.2185  19.5541 0001685  86.9921 273.1264 15.08850673 72904,6917.848,95.437,540.878,538.547,0.0
52852.0,STARLINK-4184,PAYLOAD,2023-10-11 12:17:57,15.08840302,0.0001517,53.2175,15.3916,96.6385,263.478,-5.7094e-06,-3.79e-06,0.0,0 STARLINK-4184,1 52852U 22062Y   23284.51247050 -.00000379  00000-0 -57094-5 0  9998,2 52852  53.2175  15.3916 0001517  96.6385 263.4780 15.08840302 73532,6917.879,95.438,540.794,538.695,0.0
52852.0,STARLINK-4184,PAYLOAD,2023-10-11 13:53:20,15.08843693,0.0001472,53.2177,15.0944,92.4731,267.643,8.9576e-05,1.138e-05,0.0,0 STARLINK-4184,1 52852U 22062Y   23284.57871008  .00001138  00000-0  89576-4 0  9991,2 52852  53.2177  15.0944 0001472  92.4731 267.6430 15.08843693 73052,6917.869,95.437,540.752,538.716,0.0
52852.0,STARLINK-4184,PAYLOAD,2023-10-12 12:08:44,15.08844024,0.0001554,53.2167,10.9325,85.4571,274.6599,0.00023744,3.493e-05,0.0,0 STARLINK-4184,1 52852U 22062Y   23285.50607397  .00003493  00000-0  23744-3 0  9993,2 52852  53.2167  10.9325 0001554  85.4571 274.6599 15.08844024 73191,6917.868,95.437,540.808,538.658,0.0
52852.0,STARLINK-4184,PAYLOAD,2023-10-12 23:16:26,15.08854497,0.0001498,53.2171,8.8506,96.4402,263.6761,0.00043838,6.698e-05,0.0,0 STARLINK-4184,1 52852U 22062Y   23285.96974771  .00006698  00000-0  43838-3 0  9992,2 52852  53.2171   8.8506 0001498  96.4402 263.6761 15.08854497 73751,6917.836,95.437,540.737,538.665,0.0
52852.0,STARLINK-4184,PAYLOAD,2023-10-13 11:59:32,15.0882906,0.0001398,53.2178,6.4731,94.2324,265.8827,-9.2729e-05,-1.763e-05,0.0,0 STARLINK-4184,1 52852U 22062Y   23286.49967891 -.00001763  00000-0 -92729-4 0  9990,2 52852  53.2178   6.4731 0001398  94.2324 265.8827 15.08829060 73834,6917.914,95.438,540.746,538.812,0.0
52852.0,STARLINK-4184,PAYLOAD,2023-10-14 10:14:55,15.08848432,0.0001678,53.2183,2.3108,75.3836,284.7342,0.00019483,2.815e-05,0.0,0 STARLINK-4184,1 52852U 22062Y   23287.42703057  .00002815  00000-0  19483-3 0  9998,2 52852  53.2183   2.3108 0001678  75.3836 284.7342 15.08848432 73973,6917.855,95.437,540.88,538.559,0.0
52852.0,STARLINK-4184,PAYLOAD,2023-10-14 11:50:18,15.08850396,0.0001346,53.2186,2.0117,91.1947,268.9199,0.00018586,2.672e-05,0.0,0 STARLINK-4184,1 52852U 22062Y   23287.49326739  .00002672  00000-0  18586-3 0  9997,2 52852  53.2186   2.0117 0001346  91.1947 268.9199 15.08850396 73497,6917.849,95.437,540.645,538.782,0.0
52852.0,STARLINK-4184,PAYLOAD,2023-10-15 05:19:33,15.08833009,0.0001378,53.2182,358.7416,84.6107,275.5043,-6.463e-05,-1.316e-05,0.0,0 STARLINK-4184,1 52852U 22062Y   23288.22191839 -.00001316  00000-0 -64630-4 0  9998,2 52852  53.2182 358.7416 0001378  84.6107 275.5043 15.08833009 74097,6917.902,95.438,540.72,538.813,0.0
52852.0,STARLINK-4184,PAYLOAD,2023-10-15 11:41:06,15.08826537,0.0001289,53.2175,357.5525,102.7471,257.3665,7.9284e-05,9.74e-06,0.0,0 STARLINK-4184,1 52852U 22062Y   23288.48688359  .00000974  00000-0  79284-4 0  9992,2 52852  53.2175 357.5525 0001289 102.7471 257.3665 15.08826537 73640,6917.922,95.438,540.678,538.895,0.0
52852.0,STARLINK-4184,PAYLOAD,2023-10-15 21:13:25,15.08831282,0.0001473,53.2186,355.7705,109.5505,250.5646,0.00012822,1.753e-05,0.0,0 STARLINK-4184,1 52852U 22062Y   23288.88432490  .00001753  00000-0  12822-3 0  9999,2 52852  53.2186 355.7705 0001473 109.5505 250.5646 15.08831282 73704,6917.907,95.438,540.791,538.753,0.0
52852.0,STARLINK-4184,PAYLOAD,2023-10-16 08:21:07,15.08841499,0.0001432,53.2172,353.6871,109.8585,250.2562,0.00058209,8.988e-05,0.0,0 STARLINK-4184,1 52852U 22062Y   23289.34800575  .00008988  00000-0  58209-3 0  9990,2 52852  53.2172 353.6871 0001432 109.8585 250.2562 15.08841499 74263,6917.876,95.437,540.731,538.75,0.0
52852.0,STARLINK-4184,PAYLOAD,2023-10-16 11:31:53,15.08850222,0.0001485,53.2172,353.0926,109.2546,250.8607,0.00090074,0.0001408,0.0,0 STARLINK-4184,1 52852U 22062Y   23289.48048463  .00014080  00000-0  90074-3 0  9991,2 52852  53.2172 353.0926 0001485 109.2546 250.8607 15.08850222 73794,6917.849,95.437,540.741,538.687,0.0
52852.0,STARLINK-4184,PAYLOAD,2023-10-17 11:22:40,15.0884715,0.0001341,53.2158,348.6312,101.4684,258.6459,0.00031576,4.742e-05,0.0,0 STARLINK-4184,1 52852U 22062Y   23290.47408228  .00004742  00000-0  31576-3 0  9997,2 52852  53.2158 348.6312 0001341 101.4684 258.6459 15.08847150 74434,6917.859,95.437,540.651,538.796,0.0
52852.0,STARLINK-4184,PAYLOAD,2023-10-17 12:58:03,15.08849996,0.0001459,53.2161,348.3341,105.5231,254.5923,0.00034267,5.171e-05,0.0,0 STARLINK-4184,1 52852U 22062Y   23290.54032068  .00005171  00000-0  34267-3 0  9997,2 52852  53.2161 348.3341 0001459 105.5231 254.5923 15.08849996 73957,6917.85,95.437,540.724,538.706,0.0
52852.0,STARLINK-4184,PAYLOAD,2023-10-18 03:16:32,15.08843018,0.0001749,53.2176,345.6581,98.1524,261.9666,7.6527e-05,9.3e-06,0.0,0 STARLINK-4184,1 52852U 22062Y   23291.13648305  .00000930  00000-0  76527-4 0  9994,2 52852  53.2176 345.6581 0001749  98.1524 261.9666 15.08843018 74049,6917.871,95.437,540.946,538.526,0.0
52852.0,STARLINK-4184,PAYLOAD,2023-10-18 11:13:27,15.08845924,0.0001693,53.2175,344.1709,98.8237,261.2947,8.1856e-05,1.015e-05,0.0,0 STARLINK-4184,1 52852U 22062Y   23291.46768190  .00001015  00000-0  81856-4 0  9991,2 52852  53.2175 344.1709 0001693  98.8237 261.2947 15.08845924 74582,6917.862,95.437,540.898,538.556,0.0
52852.0,STARLINK-4184,PAYLOAD,2023-10-18 20:45:46,15.08843892,0.0001538,53.2165,342.3864,88.758,271.3588,7.687e-05,9.36e-06,0.0,0 STARLINK-4184,1 52852U 22062Y   23291.86512286  .00000936  00000-0  76870-4 0  9999,2 52852  53.2165 342.3864 0001538  88.7580 271.3588 15.08843892 74158,6917.868,95.437,540.797,538.67,0.0
52852.0,STARLINK-4184,PAYLOAD,2023-10-19 03:07:19,15.08842476,0.000173,53.2172,341.1964,88.5075,271.6115,6.6439e-05,7.7e-06,0.0,0 STARLINK-4184,1 52852U 22062Y   23292.13008417  .00000770  00000-0  66439-4 0  9992,2 52852  53.2172 341.1964 0001730  88.5075 271.6115 15.08842476 74689,6917.873,95.437,540.935,538.541,0.0
52852.0,STARLINK-4184,PAYLOAD,2023-10-19 11:04:14,15.08848968,0.0001728,53.2171,339.7111,79.5549,280.5638,0.00018911,2.724e-05,0.0,0 STARLINK-4184,1 52852U 22062Y   23292.46128097  .00002724  00000-0  18911-3 0  9997,2 52852  53.2171 339.7111 0001728  79.5549 280.5638 15.08848968 74241,6917.853,95.437,540.913,538.523,0.0
52852.0,STARLINK-4184,PAYLOAD,2023-10-19 20:36:33,15.08847784,0.0001762,53.2169,337.9272,84.7691,275.3502,0.00010578,1.396e-05,0.0,0 STARLINK-4184,1 52852U 22062Y   23292.85872069  .00001396  00000-0  10578-3 0  9990,2 52852  53.2169 337.9272 0001762  84.7691 275.3502 15.08847784 74304,6917.857,95.437,540.941,538.503,0.0
52852.0,STARLINK-4184,PAYLOAD,2023-10-20 09:19:38,15.08839349,0.0001846,53.2176,335.5477,86.3274,273.7929,3.8824e-05,3.3e-06,0.0,0 STARLINK-4184,1 52852U 22062Y   23293.38864559  .00000330  00000-0  38824-4 0  9996,2 52852  53.2176 335.5477 0001846  86.3274 273.7929 15.08839349 74876,6917.882,95.438,541.024,538.47,0.0
52852.0,STARLINK-4184,PAYLOAD,2023-10-21 09:10:26,15.08837345,0.0001669,53.217,331.0871,87.0625,273.0558,3.9976e-05,3.48e-06,0.0,0 STARLINK-4184,1 52852U 22062Y   23294.38225026  .00000348  00000-0  39976-4 0  9995,2 52852  53.2170 331.0871 0001669  87.0625 273.0558 15.08837345 74538,6917.889,95.438,540.908,538.599,0.0
